{
"type": "FeatureCollection",
"name": "hospital_wings_matched",
"crs": { "type": "name", "properties": { "name": "urn:ogc:def:crs:EPSG::32630" } },
"features": [
{ "type": "Feature", "properties": { "element": "way", "id": 80901710, "building": "hospital", "note": "Whole hospital area is now marked with amenity:hospital tag, not just the building.", "ref:GB:uprn": "47234957", "source": null, "building:material": null, "addr:housenumber": null, "addr:street": null, "nohousenumber": null, "addr:city": null, "addr:postcode": null, "amenity": null, "building:levels": null, "building:roof:levels": null, "fhrs:id": null, "name": null, "phone": null, "website": null, "capacity": null, "operator": null, "social_facility": null, "addr:flats": null, "building:flats": null, "roof:levels": null, "roof:material": null, "roof:shape": null }, "geometry": { "type": "Polygon", "coordinates": [ [ [ 597867.999185655033216, 6098568.387566755525768 ], [ 597876.161433578818105, 6098575.601696005091071 ], [ 597901.839921638718806, 6098546.631163600832224 ], [ 597926.220811400096864, 6098568.137882183305919 ], [ 597910.050295047578402, 6098586.385025087743998 ], [ 597922.868394428980537, 6098597.675347452051938 ], [ 597863.811567222466692, 6098664.408875895664096 ], [ 597886.103382150176913, 6098684.044010694138706 ], [ 597861.073653406463563, 6098712.338638760149479 ], [ 597889.771027096314356, 6098737.613251506350935 ], [ 597926.184545384137891, 6098696.454811709932983 ], [ 597933.043184037785977, 6098696.605111707933247 ], [ 597936.394446964957751, 6098700.096057270653546 ], [ 597938.683468376053497, 6098699.823396982625127 ], [ 597941.209726301487535, 6098699.522541475482285 ], [ 597946.10011858085636, 6098695.522042701952159 ], [ 597961.785475350101478, 6098707.565516208298504 ], [ 597960.093948938767426, 6098709.754822417162359 ], [ 597960.218349152128212, 6098713.998815228231251 ], [ 597960.348165276111104, 6098718.287454529665411 ], [ 597965.6026448890334, 6098722.766358418390155 ], [ 597964.427990160649642, 6098724.132099031470716 ], [ 597967.052187755703926, 6098741.533177874051034 ], [ 597971.784882123814896, 6098745.599901803769171 ], [ 597965.879430261789821, 6098752.439025722444057 ], [ 597976.788585549918935, 6098761.806380410678685 ], [ 597982.56966857961379, 6098755.098126916214824 ], [ 597987.132923865341581, 6098759.016437792219222 ], [ 597977.356209532590583, 6098770.334754913114011 ], [ 598005.77020016440656, 6098794.780171246267855 ], [ 598033.951774261659011, 6098819.020305469632149 ], [ 598043.695356251089834, 6098807.75704272184521 ], [ 598048.823029151535593, 6098812.177609295584261 ], [ 598038.181302689597942, 6098824.445294864475727 ], [ 598053.645386970369145, 6098837.797830373048782 ], [ 598061.124221351929009, 6098829.201104688458145 ], [ 598055.752426028484479, 6098824.541395274922252 ], [ 598056.756013756385073, 6098823.394563411362469 ], [ 598065.793405889300629, 6098830.617138579487801 ], [ 598073.8543668074999, 6098819.973798767663538 ], [ 598050.212950901128352, 6098798.961097426712513 ], [ 598064.203267696197145, 6098782.726026023738086 ], [ 598088.326584714814089, 6098803.927489026449621 ], [ 598113.732558102346957, 6098778.057991117238998 ], [ 598092.446986689814366, 6098756.929814563132823 ], [ 598104.501963129267097, 6098743.513288857415318 ], [ 598126.132552643539384, 6098763.491375778801739 ], [ 598149.678020826308057, 6098736.45688946172595 ], [ 598119.842610149062239, 6098709.775212894193828 ], [ 598089.919089842704125, 6098740.699613294564188 ], [ 598087.090288982260972, 6098738.177362348884344 ], [ 598110.233350492082536, 6098712.280430506914854 ], [ 598102.699936971184798, 6098705.580594112165272 ], [ 598079.18990179663524, 6098731.881391946226358 ], [ 598074.742727465229109, 6098727.921005425043404 ], [ 598088.234936405788176, 6098712.832791171036661 ], [ 598061.658410047879443, 6098689.161884441040456 ], [ 598072.816507764044218, 6098676.694070211611688 ], [ 598093.885884564951994, 6098695.45741777215153 ], [ 598113.322038286365569, 6098693.936007436364889 ], [ 598111.793078421265818, 6098674.443802708759904 ], [ 598116.028856468386948, 6098669.683272134512663 ], [ 598118.419037560932338, 6098671.795159883797169 ], [ 598115.520705024013296, 6098675.059975972399116 ], [ 598120.087394225993194, 6098679.112081829458475 ], [ 598136.905709141516127, 6098660.223119429312646 ], [ 598145.618869314203039, 6098667.950796755962074 ], [ 598155.926491294754669, 6098656.366190519183874 ], [ 598136.25613684032578, 6098640.004375561140478 ], [ 598133.461999837891199, 6098643.182413511909544 ], [ 598114.946444445056841, 6098626.356250185519457 ], [ 598129.061925825662911, 6098612.027671275660396 ], [ 598121.730468378518708, 6098605.44356248062104 ], [ 598112.698486030683853, 6098616.599843526259065 ], [ 598091.191409842693247, 6098599.407547518610954 ], [ 598083.826812063576654, 6098608.607866047881544 ], [ 598104.959097810438834, 6098626.849434197880328 ], [ 598094.230443545151502, 6098638.680948044173419 ], [ 598062.683667606906965, 6098608.923105612397194 ], [ 598070.959901400376111, 6098600.143509131856263 ], [ 598049.03083132870961, 6098580.604456985369325 ], [ 598052.998196749947965, 6098576.127408171072602 ], [ 598061.281261184602045, 6098582.77680750284344 ], [ 598087.46230966411531, 6098554.27473961468786 ], [ 598074.456287877983414, 6098542.233973080292344 ], [ 598033.708048433647491, 6098588.171977703459561 ], [ 598025.727537733269855, 6098581.139649080112576 ], [ 598061.958451167214662, 6098540.256536172702909 ], [ 598049.021749556530267, 6098528.840756855905056 ], [ 598041.40135090937838, 6098537.456672380678356 ], [ 598045.617365361656994, 6098541.178175371140242 ], [ 598029.491734263021499, 6098559.392493612132967 ], [ 598025.507844192441553, 6098555.87647189758718 ], [ 598038.603851972147822, 6098541.079972572624683 ], [ 598028.628108846955001, 6098532.289554728195071 ], [ 598015.590861149015836, 6098547.03171187825501 ], [ 598012.698457126738504, 6098544.485855324193835 ], [ 598027.519547659903765, 6098527.723409804515541 ], [ 598034.697323779924773, 6098534.036817049607635 ], [ 598044.44251115154475, 6098523.018478718586266 ], [ 598013.887064143200405, 6098496.121414100751281 ], [ 598005.997522613382898, 6098505.054312417283654 ], [ 598018.42687677743379, 6098515.991292436607182 ], [ 598001.710355909890495, 6098534.905193304643035 ], [ 597999.25709847768303, 6098532.747461688704789 ], [ 598002.824764576856978, 6098528.706881505437195 ], [ 597995.791274668998085, 6098522.519142278470099 ], [ 597991.935031740926206, 6098526.887358360923827 ], [ 597982.749225516105071, 6098518.815679330378771 ], [ 597986.795721034985036, 6098514.228988219052553 ], [ 597992.109957365086302, 6098518.909599747508764 ], [ 597997.73677192046307, 6098512.543064845725894 ], [ 597991.795014549279585, 6098507.314354701898992 ], [ 597999.258287967066281, 6098498.861890029162169 ], [ 597990.229558483813889, 6098490.91609306819737 ], [ 597957.831822659703903, 6098527.620265047997236 ], [ 597966.684961544815451, 6098535.40630149282515 ], [ 597974.528650557505898, 6098526.516860186122358 ], [ 598025.382967134937644, 6098571.191273869015276 ], [ 598019.532745695207268, 6098577.831171792000532 ], [ 598006.092973321210593, 6098566.025996323674917 ], [ 597991.540263294125907, 6098582.516093632206321 ], [ 598002.483029755298048, 6098592.118004213087261 ], [ 597966.708322713384405, 6098632.655350067652762 ], [ 597953.714137997012585, 6098621.238583753816783 ], [ 597979.946671537356451, 6098591.512530479580164 ], [ 597981.0507085978752, 6098572.367551431059837 ], [ 597957.659480331349187, 6098551.238438670523465 ], [ 597951.217159410007298, 6098558.344117875210941 ], [ 597955.237017877632752, 6098561.972179270349443 ], [ 597943.24986645556055, 6098575.212480237707496 ], [ 597929.603284790646285, 6098562.913204271346331 ], [ 597941.649418749613687, 6098549.607368313707411 ], [ 597945.475279458216392, 6098553.041926035657525 ], [ 597951.87900087190792, 6098545.946524580009282 ], [ 597939.692482890211977, 6098535.015053290873766 ], [ 597938.138749198056757, 6098536.750979706645012 ], [ 597923.227176590473391, 6098523.511188786476851 ], [ 597917.398423485225067, 6098530.051499945111573 ], [ 597908.803373795934021, 6098522.449329257942736 ], [ 597867.999185655033216, 6098568.387566755525768 ] ] ] } },
{ "type": "Feature", "properties": { "element": "way", "id": 397148913, "building": "yes", "note": null, "ref:GB:uprn": "47233858;47233859;47233857;47233861;47233862;47233863;47233864;47233860", "source": "Bing", "building:material": null, "addr:housenumber": null, "addr:street": null, "nohousenumber": null, "addr:city": null, "addr:postcode": null, "amenity": null, "building:levels": null, "building:roof:levels": null, "fhrs:id": null, "name": null, "phone": null, "website": null, "capacity": null, "operator": null, "social_facility": null, "addr:flats": null, "building:flats": null, "roof:levels": null, "roof:material": null, "roof:shape": null }, "geometry": { "type": "Polygon", "coordinates": [ [ [ 597705.419430300476961, 6098804.989983217790723 ], [ 597722.190629262011498, 6098808.32893125154078 ], [ 597719.656680885353126, 6098820.975032261572778 ], [ 597725.170601222082041, 6098822.075221995823085 ], [ 597727.698172977659851, 6098809.428984146565199 ], [ 597742.520979011314921, 6098812.380309902131557 ], [ 597746.355031726998277, 6098793.217091321013868 ], [ 597741.24845664051827, 6098792.203709562309086 ], [ 597741.112165547558106, 6098792.879775357432663 ], [ 597721.399304906721227, 6098788.953228536061943 ], [ 597718.91520341928117, 6098801.366649724543095 ], [ 597710.714348620967939, 6098799.729043724946678 ], [ 597713.485731997992843, 6098785.874751840718091 ], [ 597709.404344136244617, 6098785.061934690922499 ], [ 597705.419430300476961, 6098804.989983217790723 ] ] ] } },
{ "type": "Feature", "properties": { "element": "way", "id": 452321176, "building": "yes", "note": null, "ref:GB:uprn": "47191233", "source": "Bing", "building:material": null, "addr:housenumber": null, "addr:street": "Rake Lane", "nohousenumber": null, "addr:city": "North Shields", "addr:postcode": "NE29 8NH", "amenity": "childcare", "building:levels": "1", "building:roof:levels": "1", "fhrs:id": "104964", "name": "Kids 1st", "phone": "+44 191 258 7785", "website": "http://kids1st.net/index.php/our-nurseries/rake-lane/", "capacity": null, "operator": null, "social_facility": null, "addr:flats": null, "building:flats": null, "roof:levels": null, "roof:material": null, "roof:shape": null }, "geometry": { "type": "Polygon", "coordinates": [ [ [ 598187.909705908736214, 6098964.243867442011833 ], [ 598177.114562585949898, 6098976.797285792417824 ], [ 598186.096679507871158, 6098984.475317979231477 ], [ 598184.856147906393744, 6098985.9286093339324 ], [ 598183.883051047567278, 6098985.105726666748524 ], [ 598181.002323264372535, 6098988.448807454667985 ], [ 598181.968783785589039, 6098989.282675643451512 ], [ 598178.864633738528937, 6098992.89914738945663 ], [ 598191.009883561520837, 6099003.296097548678517 ], [ 598198.333620176883414, 6098994.774114856496453 ], [ 598208.093548418022692, 6099003.137204731814563 ], [ 598218.803429610328749, 6098990.682173334993422 ], [ 598215.960124816629104, 6098988.248569167219102 ], [ 598214.299760779831558, 6098990.182430782355368 ], [ 598203.861746117821895, 6098981.247827641665936 ], [ 598205.522108619450592, 6098979.313962184824049 ], [ 598200.356435550842434, 6098974.892368331551552 ], [ 598198.49255402025301, 6098977.066666119731963 ], [ 598188.21748108882457, 6098968.280397949740291 ], [ 598190.087752550956793, 6098966.106236370280385 ], [ 598187.909705908736214, 6098964.243867442011833 ] ] ] } },
{ "type": "Feature", "properties": { "element": "way", "id": 452321177, "building": "yes", "note": null, "ref:GB:uprn": "47229242", "source": "Bing", "building:material": "brick", "addr:housenumber": null, "addr:street": "Rake Lane", "nohousenumber": null, "addr:city": "North Shields", "addr:postcode": "NE29 9QS", "amenity": "social_facility", "building:levels": null, "building:roof:levels": null, "fhrs:id": "960649", "name": "Redesdale Court", "phone": "+44 191 293 1340", "website": "https://www.hc-one.co.uk/Carehomes/Redesdale-Court.aspx", "capacity": "54", "operator": "HC One", "social_facility": "nursing_home", "addr:flats": null, "building:flats": null, "roof:levels": null, "roof:material": null, "roof:shape": null }, "geometry": { "type": "Polygon", "coordinates": [ [ [ 598184.259393782587722, 6098901.91377361305058 ], [ 598182.923135934746824, 6098900.737821810878813 ], [ 598180.274380429415032, 6098903.707514897920191 ], [ 598181.610393545823172, 6098904.89459249842912 ], [ 598179.774750122334808, 6098906.94706745352596 ], [ 598185.890551476855762, 6098912.369122664444149 ], [ 598186.087192638078704, 6098912.150804375298321 ], [ 598196.217141393688507, 6098921.145380483940244 ], [ 598194.250240244786255, 6098923.350812490098178 ], [ 598200.271837431821041, 6098928.692895007319748 ], [ 598202.238739431952126, 6098926.487465629354119 ], [ 598206.554306941688992, 6098930.311514461413026 ], [ 598204.246477998094633, 6098932.899067787453532 ], [ 598210.155200887355022, 6098938.138496245257556 ], [ 598212.462786260759458, 6098935.562072524800897 ], [ 598218.521961620426737, 6098940.938402770087123 ], [ 598219.856137763825245, 6098956.463412490673363 ], [ 598214.090198718477041, 6098956.948933790437877 ], [ 598214.396173014887609, 6098960.484489178285003 ], [ 598213.601652224897407, 6098960.55608163587749 ], [ 598214.004611972137354, 6098965.206964360550046 ], [ 598214.792740307631902, 6098965.135231494903564 ], [ 598215.052927303826436, 6098968.135446694679558 ], [ 598220.819096716935746, 6098967.638800201937556 ], [ 598222.106733376975171, 6098982.661850712262094 ], [ 598236.041276820236817, 6098981.476492271758616 ], [ 598234.646858021966182, 6098965.204309416934848 ], [ 598241.540654121083207, 6098964.610027995891869 ], [ 598240.863759264000691, 6098956.713719280436635 ], [ 598233.963804131723009, 6098957.296734773553908 ], [ 598233.561597727588378, 6098952.61247034650296 ], [ 598235.810451628291048, 6098952.417006302624941 ], [ 598235.102531879092567, 6098944.186058212071657 ], [ 598232.853673903038725, 6098944.381522652693093 ], [ 598232.289491270203143, 6098937.756737078540027 ], [ 598229.427574484026991, 6098931.805017772130668 ], [ 598222.82874047558289, 6098925.960400182753801 ], [ 598224.349768734304234, 6098924.257249306887388 ], [ 598218.528814575984143, 6098919.097655142657459 ], [ 598217.014178656507283, 6098920.800948468968272 ], [ 598212.924554336699657, 6098917.171098850667477 ], [ 598214.740789783420041, 6098915.12934248894453 ], [ 598206.768534344388172, 6098908.052312386222184 ], [ 598204.952299946337007, 6098910.094071961939335 ], [ 598193.937733719241805, 6098900.323064410127699 ], [ 598190.659472307772376, 6098904.002495462074876 ], [ 598186.049076710361987, 6098899.915950264781713 ], [ 598184.259393782587722, 6098901.91377361305058 ] ] ] } },
{ "type": "Feature", "properties": { "element": "way", "id": 476327837, "building": "residential", "note": null, "ref:GB:uprn": null, "source": null, "building:material": null, "addr:housenumber": null, "addr:street": null, "nohousenumber": null, "addr:city": null, "addr:postcode": null, "amenity": null, "building:levels": null, "building:roof:levels": null, "fhrs:id": null, "name": null, "phone": null, "website": null, "capacity": null, "operator": null, "social_facility": null, "addr:flats": null, "building:flats": null, "roof:levels": null, "roof:material": null, "roof:shape": null }, "geometry": { "type": "Polygon", "coordinates": [ [ [ 597543.261350902495906, 6098248.670932908542454 ], [ 597527.807004973874427, 6098240.864183091558516 ], [ 597541.253766254289076, 6098214.352033945731819 ], [ 597534.611353950691409, 6098211.001094043254852 ], [ 597540.045131418621168, 6098200.277214508503675 ], [ 597557.517505346098915, 6098209.107655885629356 ], [ 597549.437322016106918, 6098225.039139203727245 ], [ 597554.061564361327328, 6098227.377577714622021 ], [ 597543.261350902495906, 6098248.670932908542454 ] ] ] } },
{ "type": "Feature", "properties": { "element": "way", "id": 991229322, "building": "retail", "note": null, "ref:GB:uprn": null, "source": null, "building:material": null, "addr:housenumber": null, "addr:street": null, "nohousenumber": null, "addr:city": null, "addr:postcode": null, "amenity": null, "building:levels": null, "building:roof:levels": null, "fhrs:id": null, "name": null, "phone": null, "website": null, "capacity": null, "operator": null, "social_facility": null, "addr:flats": null, "building:flats": null, "roof:levels": null, "roof:material": null, "roof:shape": null }, "geometry": { "type": "Polygon", "coordinates": [ [ [ 598173.564414475113153, 6098890.691554890014231 ], [ 598130.991769781569019, 6098940.006055374629796 ], [ 598103.928460230585188, 6098916.736029258929193 ], [ 598136.428649695124477, 6098879.088979155756533 ], [ 598139.893123373505659, 6098882.070504502393305 ], [ 598146.678157476708293, 6098874.204521471634507 ], [ 598161.408580335904844, 6098886.873415748588741 ], [ 598164.68951747380197, 6098883.071571053005755 ], [ 598173.564414475113153, 6098890.691554890014231 ] ] ] } }
]
}
